{"type": "FeatureCollection", "features": [ {"type": "Feature", "properties": {"norad_id": 67010, "name": "STARLINK-36189", "group": "last-30-days", "lat": -10.724648957098587, "lon": 111.77353872379447, "alt_km": 339.6855448439528, "timestamp": "2025-12-25T03:55:54.956110+00:00", "meta": {"OBJECT_NAME": "STARLINK-36189", "OBJECT_ID": "2025-293H", "EPOCH": "2025-12-24T20:00:01.000224", "MEAN_MOTION": 15.7901704, "ECCENTRICITY": 0.0003378, "INCLINATION": 69.993, "RA_OF_ASC_NODE": 288.757, "ARG_OF_PERICENTER": 265.1318, "MEAN_ANOMALY": 208.8669, "EPHEMERIS_TYPE": 0, "CLASSIFICATION_TYPE": "U", "NORAD_CAT_ID": 67010, "ELEMENT_SET_NO": 999, "REV_AT_EPOCH": 211, "BSTAR": -0.010484, "MEAN_MOTION_DOT": -0.01628072, "MEAN_MOTION_DDOT": 0}, "tle": {"line1": "1 67010U 25293H   25358.83334491 -.01628072  00000+0 -10484-1 0  9998", "line2": "2 67010  69.9930 288.7570 0003378 265.1318 208.8669 15.79017040  2113"}}, "geometry": {"type": "Point", "coordinates": [111.77353872379447, -10.724648957098587]}}, {"type": "Feature", "properties": {"norad_id": 67011, "name": "STARLINK-36167", "group": "last-30-days", "lat": -8.34572996342015, "lon": 110.88274213886578, "alt_km": 339.5414292659925, "timestamp": "2025-12-25T03:55:54.956120+00:00", "meta": {"OBJECT_NAME": "STARLINK-36167", "OBJECT_ID": "2025-293J", "EPOCH": "2025-12-24T20:00:01.000224", "MEAN_MOTION": 15.79035809, "ECCENTRICITY": 0.0003439, "INCLINATION": 69.9927, "RA_OF_ASC_NODE": 288.7593, "ARG_OF_PERICENTER": 267.8993, "MEAN_ANOMALY": 203.5368, "EPHEMERIS_TYPE": 0, "CLASSIFICATION_TYPE": "U", "NORAD_CAT_ID": 67011, "ELEMENT_SET_NO": 999, "REV_AT_EPOCH": 205, "BSTAR": -0.010405, "MEAN_MOTION_DOT": -0.01618696, "MEAN_MOTION_DDOT": 0}, "tle": {"line1": "1 67011U 25293J   25358.83334491 -.01618696  00000+0 -10405-1 0  9993", "line2": "2 67011  69.9927 288.7593 0003439 267.8993 203.5368 15.79035809  2055"}}, "geometry": {"type": "Point", "coordinates": [110.88274213886578, -8.34572996342015]}}, {"type": "Feature", "properties": {"norad_id": 67012, "name": "STARLINK-36175", "group": "last-30-days", "lat": -12.766450926182833, "lon": 112.549122210171, "alt_km": 340.05605775153435, "timestamp": "2025-12-25T03:55:54.956130+00:00", "meta": {"OBJECT_NAME": "STARLINK-36175", "OBJECT_ID": "2025-293K", "EPOCH": "2025-12-24T20:00:01.000224", "MEAN_MOTION": 15.79001994, "ECCENTRICITY": 0.0003378, "INCLINATION": 69.9926, "RA_OF_ASC_NODE": 288.754, "ARG_OF_PERICENTER": 270.5471, "MEAN_ANOMALY": 205.6457, "EPHEMERIS_TYPE": 0, "CLASSIFICATION_TYPE": "U", "NORAD_CAT_ID": 67012, "ELEMENT_SET_NO": 999, "REV_AT_EPOCH": 205, "BSTAR": -0.010426, "MEAN_MOTION_DOT": -0.01619261, "MEAN_MOTION_DDOT": 0}, "tle": {"line1": "1 67012U 25293K   25358.83334491 -.01619261  00000+0 -10426-1 0  9996", "line2": "2 67012  69.9926 288.7540 0003378 270.5471 205.6457 15.79001994  2051"}}, "geometry": {"type": "Point", "coordinates": [112.549122210171, -12.766450926182833]}}, {"type": "Feature", "properties": {"norad_id": 67013, "name": "STARLINK-35856", "group": "last-30-days", "lat": -15.10843270271304, "lon": 113.45551088699409, "alt_km": 340.0431832855029, "timestamp": "2025-12-25T03:55:54.956140+00:00", "meta": {"OBJECT_NAME": "STARLINK-35856", "OBJECT_ID": "2025-293L", "EPOCH": "2025-12-24T20:00:01.000224", "MEAN_MOTION": 15.78975537, "ECCENTRICITY": 0.0003613, "INCLINATION": 69.9925, "RA_OF_ASC_NODE": 288.7505, "ARG_OF_PERICENTER": 266.1769, "MEAN_ANOMALY": 212.5514, "EPHEMERIS_TYPE": 0, "CLASSIFICATION_TYPE": "U", "NORAD_CAT_ID": 67013, "ELEMENT_SET_NO": 999, "REV_AT_EPOCH": 205, "BSTAR": -0.010423, "MEAN_MOTION_DOT": -0.01617408, "MEAN_MOTION_DDOT": 0}, "tle": {"line1": "1 67013U 25293L   25358.83334491 -.01617408  00000+0 -10423-1 0  9995", "line2": "2 67013  69.9925 288.7505 0003613 266.1769 212.5514 15.78975537  2058"}}, "geometry": {"type": "Point", "coordinates": [113.45551088699409, -15.10843270271304]}}, {"type": "Feature", "properties": {"norad_id": 67014, "name": "STARLINK-36207", "group": "last-30-days", "lat": -17.33634847696024, "lon": 114.33879781817035, "alt_km": 340.3401120271528, "timestamp": "2025-12-25T03:55:54.956150+00:00", "meta": {"OBJECT_NAME": "STARLINK-36207", "OBJECT_ID": "2025-293M", "EPOCH": "2025-12-24T20:00:01.000224", "MEAN_MOTION": 15.78957723, "ECCENTRICITY": 0.0003574, "INCLINATION": 69.9929, "RA_OF_ASC_NODE": 288.7482, "ARG_OF_PERICENTER": 268.9848, "MEAN_ANOMALY": 212.1505, "EPHEMERIS_TYPE": 0, "CLASSIFICATION_TYPE": "U", "NORAD_CAT_ID": 67014, "ELEMENT_SET_NO": 999, "REV_AT_EPOCH": 211, "BSTAR": -0.010437, "MEAN_MOTION_DOT": -0.01618051, "MEAN_MOTION_DDOT": 0}, "tle": {"line1": "1 67014U 25293M   25358.83334491 -.01618051  00000+0 -10437-1 0  9996", "line2": "2 67014  69.9929 288.7482 0003574 268.9848 212.1505 15.78957723  2111"}}, "geometry": {"type": "Point", "coordinates": [114.33879781817035, -17.33634847696024]}}, {"type": "Feature", "properties": {"norad_id": 67015, "name": "STARLINK-36093", "group": "last-30-days", "lat": -21.730395278245755, "lon": 116.1520347699644, "alt_km": 340.50561060599375, "timestamp": "2025-12-25T03:55:54.956162+00:00", "meta": {"OBJECT_NAME": "STARLINK-36093", "OBJECT_ID": "2025-293N", "EPOCH": "2025-12-24T20:00:01.000224", "MEAN_MOTION": 15.78925613, "ECCENTRICITY": 0.0003492, "INCLINATION": 69.9925, "RA_OF_ASC_NODE": 288.742, "ARG_OF_PERICENTER": 264.6017, "MEAN_ANOMALY": 221.2892, "EPHEMERIS_TYPE": 0, "CLASSIFICATION_TYPE": "U", "NORAD_CAT_ID": 67015, "ELEMENT_SET_NO": 999, "REV_AT_EPOCH": 205, "BSTAR": -0.010477, "MEAN_MOTION_DOT": -0.01621325, "MEAN_MOTION_DDOT": 0}, "tle": {"line1": "1 67015U 25293N   25358.83334491 -.01621325  00000+0 -10477-1 0  9999", "line2": "2 67015  69.9925 288.7420 0003492 264.6017 221.2892 15.78925613  2056"}}, "geometry": {"type": "Point", "coordinates": [116.1520347699644, -21.730395278245755]}}, {"type": "Feature", "properties": {"norad_id": 67016, "name": "STARLINK-36120", "group": "last-30-days", "lat": -19.439647446865486, "lon": 115.19346321291509, "alt_km": 340.33249125854854, "timestamp": "2025-12-25T03:55:54.956174+00:00", "meta": {"OBJECT_NAME": "STARLINK-36120", "OBJECT_ID": "2025-293P", "EPOCH": "2025-12-24T20:00:01.000224", "MEAN_MOTION": 15.78945228, "ECCENTRICITY": 0.0003387, "INCLINATION": 69.9926, "RA_OF_ASC_NODE": 288.7452, "ARG_OF_PERICENTER": 263.5719, "MEAN_ANOMALY": 219.8313, "EPHEMERIS_TYPE": 0, "CLASSIFICATION_TYPE": "U", "NORAD_CAT_ID": 67016, "ELEMENT_SET_NO": 999, "REV_AT_EPOCH": 205, "BSTAR": -0.010455, "MEAN_MOTION_DOT": -0.01619577, "MEAN_MOTION_DDOT": 0}, "tle": {"line1": "1 67016U 25293P   25358.83334491 -.01619577  00000+0 -10455-1 0  9992", "line2": "2 67016  69.9926 288.7452 0003387 263.5719 219.8313 15.78945228  2058"}}, "geometry": {"type": "Point", "coordinates": [115.19346321291509, -19.439647446865486]}}, {"type": "Feature", "properties": {"norad_id": 67017, "name": "STARLINK-35498", "group": "last-30-days", "lat": -23.90166101523461, "lon": 117.09177572252247, "alt_km": 340.6130897967478, "timestamp": "2025-12-25T03:55:54.956198+00:00", "meta": {"OBJECT_NAME": "STARLINK-35498", "OBJECT_ID": "2025-293Q", "EPOCH": "2025-12-24T20:00:01.000224", "MEAN_MOTION": 15.78908101, "ECCENTRICITY": 0.0003538, "INCLINATION": 69.9921, "RA_OF_ASC_NODE": 288.739, "ARG_OF_PERICENTER": 264.1433, "MEAN_ANOMALY": 224.1077, "EPHEMERIS_TYPE": 0, "CLASSIFICATION_TYPE": "U", "NORAD_CAT_ID": 67017, "ELEMENT_SET_NO": 999, "REV_AT_EPOCH": 224, "BSTAR": -0.010477, "MEAN_MOTION_DOT": -0.01620176, "MEAN_MOTION_DDOT": 0}, "tle": {"line1": "1 67017U 25293Q   25358.83334491 -.01620176  00000+0 -10477-1 0  9994", "line2": "2 67017  69.9921 288.7390 0003538 264.1433 224.1077 15.78908101  2249"}}, "geometry": {"type": "Point", "coordinates": [117.09177572252247, -23.90166101523461]}}, {"type": "Feature", "properties": {"norad_id": 67018, "name": "STARLINK-36106", "group": "last-30-days", "lat": -26.08407656028132, "lon": 118.07121521924314, "alt_km": 340.7433796930727, "timestamp": "2025-12-25T03:55:54.956209+00:00", "meta": {"OBJECT_NAME": "STARLINK-36106", "OBJECT_ID": "2025-293R", "EPOCH": "2025-12-24T20:00:01.000224", "MEAN_MOTION": 15.78903044, "ECCENTRICITY": 0.0003556, "INCLINATION": 69.992, "RA_OF_ASC_NODE": 288.7358, "ARG_OF_PERICENTER": 263.6911, "MEAN_ANOMALY": 226.9358, "EPHEMERIS_TYPE": 0, "CLASSIFICATION_TYPE": "U", "NORAD_CAT_ID": 67018, "ELEMENT_SET_NO": 999, "REV_AT_EPOCH": 216, "BSTAR": -0.010655, "MEAN_MOTION_DOT": -0.01643774, "MEAN_MOTION_DDOT": 0}, "tle": {"line1": "1 67018U 25293R   25358.83334491 -.01643774  00000+0 -10655-1 0  9992", "line2": "2 67018  69.9920 288.7358 0003556 263.6911 226.9358 15.78903044  2162"}}, "geometry": {"type": "Point", "coordinates": [118.07121521924314, -26.08407656028132]}}, {"type": "Feature", "properties": {"norad_id": 67019, "name": "STARLINK-35688", "group": "last-30-days", "lat": -28.14448887067248, "lon": 119.03335275783886, "alt_km": 340.8659828825339, "timestamp": "2025-12-25T03:55:54.956219+00:00", "meta": {"OBJECT_NAME": "STARLINK-35688", "OBJECT_ID": "2025-293S", "EPOCH": "2025-12-24T20:00:01.000224", "MEAN_MOTION": 15.78882896, "ECCENTRICITY": 0.0003532, "INCLINATION": 69.9918, "RA_OF_ASC_NODE": 288.733, "ARG_OF_PERICENTER": 264.4827, "MEAN_ANOMALY": 228.3922, "EPHEMERIS_TYPE": 0, "CLASSIFICATION_TYPE": "U", "NORAD_CAT_ID": 67019, "ELEMENT_SET_NO": 999, "REV_AT_EPOCH": 224, "BSTAR": -0.010524, "MEAN_MOTION_DOT": -0.01624913, "MEAN_MOTION_DDOT": 0}, "tle": {"line1": "1 67019U 25293S   25358.83334491 -.01624913  00000+0 -10524-1 0  9992", "line2": "2 67019  69.9918 288.7330 0003532 264.4827 228.3922 15.78882896  2242"}}, "geometry": {"type": "Point", "coordinates": [119.03335275783886, -28.14448887067248]}}]}